[{"OBJECT_NAME":"STARLINK-4775","OBJECT_ID":"2022-119BA","EPOCH":"2026-03-09T22:45:39.789216","MEAN_MOTION":15.08826653,"ECCENTRICITY":0.00010866,"INCLINATION":53.2175,"RA_OF_ASC_NODE":298.0094,"ARG_OF_PERICENTER":91.4028,"MEAN_ANOMALY":268.7088,"EPHEMERIS_TYPE":0,"CLASSIFICATION_TYPE":"U","NORAD_CAT_ID":53934,"ELEMENT_SET_NO":999,"REV_AT_EPOCH":19209,"BSTAR":0.00014052726,"MEAN_MOTION_DOT":1.949e-5,"MEAN_MOTION_DDOT":0},{"OBJECT_NAME":"COSMOS 2535 DEB","OBJECT_ID":"2019-039H","EPOCH":"2026-03-09T01:37:49.505376","MEAN_MOTION":15.12536261,"ECCENTRICITY":0.00199509,"INCLINATION":97.5365,"RA_OF_ASC_NODE":108.6978,"ARG_OF_PERICENTER":50.248,"MEAN_ANOMALY":310.0505,"EPHEMERIS_TYPE":0,"CLASSIFICATION_TYPE":"U","NORAD_CAT_ID":44631,"ELEMENT_SET_NO":999,"REV_AT_EPOCH":34980,"BSTAR":0.00071319108,"MEAN_MOTION_DOT":0.00012434,"MEAN_MOTION_DDOT":0}]
